{"epoch":1784799577,"count":18318,"objects":[{"id":"48268","name":"PNEO3","type":"PAYLOAD","l1":"1 48268U 21034A   26203.97784868  .00001427  00000-0  18790-3 0  9990","l2":"2 48268  97.8937 278.2295 0001419  99.4825 260.6548 14.81668531282950"},{"id":"49070","name":"PNEO4","type":"PAYLOAD","l1":"1 49070U 21073E   26203.94404727  .00000251  00000-0  38456-4 0  9991","l2":"2 49070  97.8936 278.1923 0001387  98.5279 261.6091 14.81672159266660"}]}