{"fetched_at":"2026-07-23T07:05:56.335Z","source":"https://celestrak.org/NORAD/elements/gp.php?NAME=PLEIADES&FORMAT=JSON","constellation":"pleiades-neo","records":[{"OBJECT_NAME":"PLEIADES NEO 3","OBJECT_ID":"2021-034A","EPOCH":"2026-07-22T23:28:06.125952","CLASSIFICATION_TYPE":"U","MEAN_MOTION":14.81668531,"ECCENTRICITY":0.00014191,"INCLINATION":97.8937,"RA_OF_ASC_NODE":278.2295,"ARG_OF_PERICENTER":99.4825,"MEAN_ANOMALY":260.6548,"EPHEMERIS_TYPE":0,"NORAD_CAT_ID":48268,"ELEMENT_SET_NO":999,"REV_AT_EPOCH":28295,"BSTAR":0.00018789538,"MEAN_MOTION_DOT":0.00001427,"MEAN_MOTION_DDOT":0},{"OBJECT_NAME":"PLEIADES NEO 4","OBJECT_ID":"2021-073E","EPOCH":"2026-07-22T22:39:25.684128","CLASSIFICATION_TYPE":"U","MEAN_MOTION":14.81672159,"ECCENTRICITY":0.00013868,"INCLINATION":97.8936,"RA_OF_ASC_NODE":278.1923,"ARG_OF_PERICENTER":98.5279,"MEAN_ANOMALY":261.6091,"EPHEMERIS_TYPE":0,"NORAD_CAT_ID":49070,"ELEMENT_SET_NO":999,"REV_AT_EPOCH":26666,"BSTAR":0.000038455796,"MEAN_MOTION_DOT":0.00000251,"MEAN_MOTION_DDOT":0}]}
